COSMO-SKYMED 1          
1 31598U 07023A   26178.49460331  .00002878  00000+0  25435-3 0  9998
2 31598  97.8859  10.4374 0001767  88.2666 271.8758 14.97154881 31336
COSMOS 2428             
1 31792U 07029A   26178.47990093 -.00000003  00000+0  23959-4 0  9990
2 31792  70.9373 332.8657 0007126 115.2842 244.9018 14.12927896979604
SL-16 R/B               
1 31793U 07029B   26178.50432147 -.00000234  00000+0 -96375-4 0  9995
2 31793  70.9771 301.5403 0002449 263.3095 168.0996 14.14854606980903
KORONAS-FOTON           
1 33504U 09003A   26178.50049711  .00012396  00000+0  25321-3 0  9994
2 33504  82.4284 161.4991 0012466 115.4200 244.8340 15.45930142962699
CZ-2C R/B               
1 37731U 11030B   26178.45216968  .00001255  00000+0  16331-3 0  9990
2 37731  97.8658 133.6531 0052164 354.8538 118.8712 14.81495515806344
H-2A R/B                
1 38341U 12025E   26178.45904409  .00002676  00000+0  24197-3 0  9994
2 38341  98.4821 154.4514 0042984 314.6134  45.1581 14.95763034764627
SHIJIAN-16 (SJ-16)      
1 39358U 13057A   26178.49452586  .00001078  00000+0  10726-3 0  9995
2 39358  74.9729 337.1599 0016500 206.8213 153.2124 14.92622993687881
SL-4 R/B                
1 39679U 14021B   26178.43279392  .00010470  00000+0  21611-3 0  9990
2 39679  51.6029 160.5703 0090734 143.3381 217.3859 15.42148457673199
ALOS-2                  
1 39766U 14029A   26178.55463154  .00001770  00000+0  24387-3 0  9995
2 39766  97.9225 275.5701 0001620  93.6492 266.4905 14.79467553653115
YAOGAN-29               
1 41038U 15069A   26178.50040264  .00000895  00000+0  11649-3 0  9997
2 41038  98.0027 207.1494 0002044  38.8255 321.3105 14.83094152572154
ASTRO-H (HITOMI)        
1 41337U 16012A   26178.21052640  .00002761  00000+0  15756-3 0  9994
2 41337  31.0006   9.4522 0009711 353.5408   6.5104 15.10554078568807
HXMT (HUIYAN)           
1 42758U 17034A   26178.32982421  .00004789  00000+0  23610-3 0  9998
2 42758  43.0134 126.5599 0032124 211.5871 148.3049 15.18543815499201
SAOCOM 1A               
1 43641U 18076A   26178.53268125  .00000160  00000+0  26670-4 0  9997
2 43641  97.8884   5.1308 0001530  81.6296 278.5090 14.82154339417634
H-2A R/B                
1 43682U 18084L   26178.42373101  .00021746  00000+0  45035-3 0  9998
2 43682  98.8570  59.5530 0022204   5.4429 354.7052 15.45542949422702
SAOCOM 1B               
1 46265U 20059A   26178.49634537  .00000617  00000+0  84118-4 0  9993
2 46265  97.8888   4.1906 0001624  83.0260 277.1138 14.82147653315015
CSS (TIANHE)            
1 48274U 21035A   26178.53327231  .00020275  00000+0  23524-3 0  9990
2 48274  41.4688 259.0201 0008141 164.2902 195.8191 15.61258428294781
COSMOS 2550             
1 48865U 21056A   26178.26165868  .00017028  00000+0  52263-3 0  9999
2 48865  67.1440  69.4301 0008274 269.5957  90.4250 15.33807225280266
CZ-2C R/B               
1 52794U 22058K   26178.54036844  .00034981  00000+0  37845-3 0  9996
2 52794  50.1851 109.6189 0031844 310.2309  49.5880 15.62566835227261
CZ-2C R/B               
1 54039U 22132E   26178.46413859  .00059832  00000+0  44056-3 0  9993
2 54039  97.2893 185.9551 0013932  51.2717 308.9790 15.72751957207561
GSLV R/B                
1 54149U 22138AN  26178.34325013  .00003371  00000+0  28667-3 0  9999
2 54149  87.3811 129.5737 0023975 109.9840 250.3976 14.97302817200336
XRISM                   
1 57800U 23137A   26178.48559367  .00004643  00000+0  25418-3 0  9996
2 57800  31.0027 292.8899 0007786  67.5058 292.6405 15.12550992154424
ACS3                    
1 59588U 24077B   26177.53402066  .00004974  00000+0  36073-2 0  9998
2 59588  97.1683  94.2429 0095187  57.1858 303.8432 13.94542288109341
CZ-8A R/B               
1 66004U 25231K   26178.53315750 -.00000003  00000+0  57270-4 0  9990
2 66004  50.0056 355.2997 0116496 260.4163  98.3574 14.30157522 36424
SZ-21 MODULE            
1 66515U 25246C   26178.47610451  .00048253  00000+0  28484-3 0  9994
2 66515  41.4717 243.2050 0004974  73.8783 286.2609 15.77281259 35362
