OBJECT_NAME,OBJECT_ID,EPOCH,MEAN_MOTION,ECCENTRICITY,INCLINATION,RA_OF_ASC_NODE,ARG_OF_PERICENTER,MEAN_ANOMALY,EPHEMERIS_TYPE,CLASSIFICATION_TYPE,NORAD_CAT_ID,ELEMENT_SET_NO,REV_AT_EPOCH,BSTAR,MEAN_MOTION_DOT,MEAN_MOTION_DDOT
COSMO-SKYMED 1,2007-023A,2026-06-27T11:52:13.725984,14.97154881,.0001767,97.8859,10.4374,88.2666,271.8758,0,U,31598,999,3133,.25435E-3,.2878E-4,0
COSMOS 2428,2007-029A,2026-06-27T11:31:03.440352,14.12927896,.0007126,70.9373,332.8657,115.2842,244.9018,0,U,31792,999,97960,.23959E-4,-.3E-7,0
SL-16 R/B,2007-029B,2026-06-27T12:06:13.375008,14.14854606,.0002449,70.9771,301.5403,263.3095,168.0996,0,U,31793,999,98090,-.96375E-4,-.234E-5,0
KORONAS-FOTON,2009-003A,2026-06-27T12:00:42.950304,15.45930142,.0012466,82.4284,161.4991,115.4200,244.8340,0,U,33504,999,96269,.25321E-3,.12396E-3,0
CZ-2C R/B,2011-030B,2026-06-27T10:51:07.460352,14.81495515,.0052164,97.8658,133.6531,354.8538,118.8712,0,U,37731,999,80634,.16331E-3,.1255E-4,0
H-2A R/B,2012-025E,2026-06-27T11:01:01.409376,14.95763034,.0042984,98.4821,154.4514,314.6134,45.1581,0,U,38341,999,76462,.24197E-3,.2676E-4,0
SHIJIAN-16 (SJ-16),2013-057A,2026-06-27T11:52:07.034304,14.92622993,.00165,74.9729,337.1599,206.8213,153.2124,0,U,39358,999,68788,.10726E-3,.1078E-4,0
SL-4 R/B,2014-021B,2026-06-27T10:23:13.394688,15.42148457,.0090734,51.6029,160.5703,143.3381,217.3859,0,U,39679,999,67319,.21611E-3,.1047E-3,0
ALOS-2,2014-029A,2026-06-27T13:18:40.165056,14.79467553,.000162,97.9225,275.5701,93.6492,266.4905,0,U,39766,999,65311,.24387E-3,.177E-4,0
YAOGAN-29,2015-069A,2026-06-27T12:00:34.788096,14.83094152,.0002044,98.0027,207.1494,38.8255,321.3105,0,U,41038,999,57215,.11649E-3,.895E-5,0
ASTRO-H (HITOMI),2016-012A,2026-06-27T05:03:09.480960,15.10554078,.0009711,31.0006,9.4522,353.5408,6.5104,0,U,41337,999,56880,.15756214E-3,.2761E-4,0
HXMT (HUIYAN),2017-034A,2026-06-27T07:54:56.811744,15.18543815,.0032124,43.0134,126.5599,211.5871,148.3049,0,U,42758,999,49920,.2361E-3,.4789E-4,0
SAOCOM 1A,2018-076A,2026-06-27T12:47:03.660000,14.82154339,.000153,97.8884,5.1308,81.6296,278.5090,0,U,43641,999,41763,.2667E-4,.16E-5,0
H-2A R/B,2018-084L,2026-06-27T10:10:10.359264,15.45542949,.0022204,98.8570,59.5530,5.4429,354.7052,0,U,43682,999,42270,.45035E-3,.21746E-3,0
SAOCOM 1B,2020-059A,2026-06-27T11:54:44.239968,14.82147653,.0001624,97.8888,4.1906,83.0260,277.1138,0,U,46265,999,31501,.84118E-4,.617E-5,0
CSS (TIANHE),2021-035A,2026-06-27T12:47:54.727584,15.61258428,.0008141,41.4688,259.0201,164.2902,195.8191,0,U,48274,999,29478,.23524E-3,.20275E-3,0
COSMOS 2550,2021-056A,2026-06-27T06:16:47.309952,15.33807225,.0008274,67.1440,69.4301,269.5957,90.4250,0,U,48865,999,28026,.52263E-3,.17028E-3,0
CZ-2C R/B,2022-058K,2026-06-27T12:58:07.833216,15.62566835,.0031844,50.1851,109.6189,310.2309,49.5880,0,U,52794,999,22726,.37845E-3,.34981E-3,0
CZ-2C R/B,2022-132E,2026-06-27T11:08:21.574176,15.72751957,.0013932,97.2893,185.9551,51.2717,308.9790,0,U,54039,999,20756,.44056E-3,.59832E-3,0
GSLV R/B,2022-138AN,2026-06-27T08:14:16.811232,14.97302817,.0023975,87.3811,129.5737,109.9840,250.3976,0,U,54149,999,20033,.28667E-3,.3371E-4,0
XRISM,2023-137A,2026-06-27T11:39:15.293088,15.12550992,.0007786,31.0027,292.8899,67.5058,292.6405,0,U,57800,999,15442,.25418E-3,.4643E-4,0
ACS3,2024-077B,2026-06-26T12:48:59.385024,13.94542288,.0095187,97.1683,94.2429,57.1858,303.8432,0,U,59588,999,10934,.36073E-2,.4974E-4,0
CZ-8A R/B,2025-231K,2026-06-27T12:47:44.808000,14.30157522,.0116496,50.0056,355.2997,260.4163,98.3574,0,U,66004,999,3642,.5727E-4,-.3E-7,0
SZ-21 MODULE,2025-246C,2026-06-27T11:25:35.429664,15.77281259,.0004974,41.4717,243.2050,73.8783,286.2609,0,U,66515,999,3536,.28484E-3,.48253E-3,0
